#aV2014 12  7  0  0  0.00000000     288 DD+AD WGS84 FIT  NGA
## 1822      0.00000000   300.00000000 56998 0.0000000000000
+   32     1  2  3  4  5  6  7  8  9 10 11 12 13 14 15 16 17
+         18 19 20 21 22 23 24 25 26 27 28 29 30 31 32  0  0
+          0  0  0  0  0  0  0  0  0  0  0  0  0  0  0  0  0
+          0  0  0  0  0  0  0  0  0  0  0  0  0  0  0  0  0
+          0  0  0  0  0  0  0  0  0  0  0  0  0  0  0  0  0
++         2  2  2  2  2  2  2  2  2  2  2  2  2  2  2  2  2
++         2  2  2  2  2  2  2  2  2  2  2  2  2  2  2  0  0
++         0  0  0  0  0  0  0  0  0  0  0  0  0  0  0  0  0
++         0  0  0  0  0  0  0  0  0  0  0  0  0  0  0  0  0
++         0  0  0  0  0  0  0  0  0  0  0  0  0  0  0  0  0
%c cc cc ccc ccc cccc cccc cccc cccc ccccc ccccc ccccc ccccc
%c cc cc ccc ccc cccc cccc cccc cccc ccccc ccccc ccccc ccccc
%f  0.0000000  0.000000000  0.00000000000  0.000000000000000
%f  0.0000000  0.000000000  0.00000000000  0.000000000000000
%i    0    0    0    0      0      0      0      0         0
%i    0    0    0    0      0      0      0      0         0
/*      NGA, ST. LOUIS,MO.                                  
/*   EPHEMERIS COMPUTED FROM  1 DAYS OF DATA                
/*   EPOCHA SMOOTHER                                       
/* CCCCCCCCCCCCCCCCCCCCCCCCCCCCCCCCCCCCCCCCCCCCCCCCCCCCCCCCC
*  2014 12  7 20 40  0.00000000
P  1 -13571.570782  21612.609354   6997.900036    -11.374084                    
V  1    621.949365  -9400.195603  30172.550047      0.003583                    
P  2  15969.832934    410.281680 -20833.269988    534.511205                    
V  2  -8111.151100  26143.063932  -6090.667173      0.022243                    
P  3 -18861.748976  12796.969549 -13672.306853     56.320865                    
V  3 -17481.832950    623.246037  24643.384187      0.314557                    
P  4 -16758.870496  13240.312402  15309.665694     -4.071770                    
V  4   4372.830778 -19871.683068  21798.191345     -0.004432                    
P  5  26342.904876  -1672.730596  -3777.121304   -308.906976                    
V  5  -4143.503654   3807.420565 -30834.580275      0.046904                    
P  6   9535.062552  14534.213886 -20100.667854     22.760699                    
V  6  -9970.739758  23479.928624  12239.606670      0.071190                    
P  7  -6345.519646  25071.921776   5239.434691    420.035172                    
V  7  -4970.981380   5089.358857 -31296.202006      0.036319                    
P  8 -17592.479530  12068.852402 -15157.558334     16.629550                    
V  8   7815.791716 -18317.072646 -23948.375673      0.001130                    
P  9   2941.991166  21092.227946 -15868.129731    -22.159225                    
V  9 -14320.814043 -14315.096337 -21695.694446     -0.088708                    
P 10  16838.692001  10758.137196 -18070.725637   -153.147528                    
V 10 -21628.114228   4861.836450 -17198.425339     -0.017344                    
P 11 -12373.731361  17848.235768  14669.275344   -541.928802                    
V 11  -3111.403208 -19928.851413  21044.027500     -0.027665                    
P 12  21337.973890 -10351.170998 -11814.280307    251.867269                    
V 12  15019.816323     -2.358577  27509.373519      0.028450                    
P 13  18317.824639  16647.668608   9309.875079    -67.508358                    
V 13   4670.435505  11333.661812 -29149.505244     -0.034109                    
P 14 -14907.650550 -22076.382271    595.896740    108.549950                    
V 14   2275.949782  -1010.232054  31820.871952     -0.036120                    
P 15  12924.176893  -9098.332748  21287.773360   -218.996280                    
V 15  18074.655749  20438.207666  -1913.951499     -0.022246                    
P 16 -26496.378109    124.480312  -3798.928720   -174.990344                    
V 16   4512.533565  -2025.063956 -31660.184761      0.029536                    
P 17  14564.201859  22259.634797   2398.940725   -142.429460                    
V 17  -3427.201417   -795.015373  31640.654876     -0.024082                    
P 18  -1224.758443 -16208.678611  21461.765217    363.534569                    
V 18  25990.212460  -4245.710446  -2079.020063      0.026208                    
P 19 -16098.482191   1884.429463  20955.434938   -491.458716                    
V 19 -14538.159774 -22623.905330  -8621.110086     -0.016331                    
P 20 -15887.382575  15269.959236 -14982.190952    264.863910                    
V 20 -18938.349568   1572.191116  22053.288472      0.041051                    
P 21    248.354845 -24282.502146  10918.009027   -398.977946                    
V 21   7634.930641 -11158.540861 -27032.091722     -0.020786                    
P 22 -15132.948497 -11706.415272  18702.267312    294.484589                    
V 22  22725.857416  -5817.731456  14749.643677      0.038617                    
P 23  -7268.966176  14609.223168 -20748.652373    -72.819056                    
V 23 -17605.304935 -20191.852144  -8419.187553     -0.027638                    
P 24  14719.910356 -19574.724854  10101.868110    -39.696804                    
V 24  -1817.976954  13069.969819  28046.576152     -0.007231                    
P 25   9189.360496 -15084.738118 -19867.826525     10.534872                    
V 25  24895.903792  -3014.917602  13996.834455     -0.020003                    
P 26  18467.035210   6346.433786  17471.511603   -149.093151                    
V 26  11702.472882  20291.891130 -18763.094266     -0.131939                    
P 27 -20147.981888  -7488.163073  15641.365307     35.401892                    
V 27 -11195.606527 -16479.827543 -22216.320696      0.027498                    
P 28   9665.713520  13324.965777  21493.786138    403.680183                    
V 28 -25600.686505   2840.627050   9934.158407      0.027771                    
P 29     54.267531 -20047.236404 -17411.535210    578.102791                    
V 29  14269.314246  16973.670868 -19430.335239      0.023985                    
P 30   1512.563321  21786.969410  15083.544773    -84.046758                    
V 30 -10077.072306  16457.528077 -22809.792308     -0.014939                    
P 31 -10440.256091 -11975.226309 -21072.905997    327.785604                    
V 31  11144.911471 -24750.256796   8800.232798     -0.006409                    
P 32 -25459.501545   4955.576689  -4114.844681   -276.216658                    
V 32  -5596.997341  -3245.650419  31214.906805      0.088623                    
EOF
